NORAD_CAT_ID,OBJECT_NAME,OBJECT_TYPE,EPOCH,MEAN_MOTION,ECCENTRICITY,INCLINATION,RA_OF_ASC_NODE,ARG_OF_PERICENTER,MEAN_ANOMALY,BSTAR,MEAN_MOTION_DOT,MEAN_MOTION_DDOT,TLE_LINE0,TLE_LINE1,TLE_LINE2,SEMIMAJOR_AXIS,PERIOD,APOGEE,PERIGEE,DECAYED
51857.0,STARLINK-3571,PAYLOAD,2022-09-20 12:32:52,15.08857941,0.0001835,53.217,303.1602,57.5574,302.5595,0.00063674,9.865e-05,0.0,0 STARLINK-3571,1 51857U 22022F   22263.52282675  .00009865  00000-0  63674-3 0  9993,2 51857  53.2170 303.1602 0001835  57.5574 302.5595 15.08857941 31877,6917.826,95.436,540.96,538.4209999999998,0.0
51857.0,STARLINK-3571,PAYLOAD,2022-09-21 04:26:43,15.08844475,0.0001884,53.2172,300.1866,61.7544,298.3639,6.6514e-05,7.71e-06,0.0,0 STARLINK-3571,1 51857U 22022F   22264.18522751  .00000771  00000-0  66514-4 0  9992,2 51857  53.2172 300.1866 0001884  61.7544 298.3639 15.08844475 31976,6917.8669999999975,95.437,541.035,538.428,0.0
51857.0,STARLINK-3571,PAYLOAD,2022-09-21 10:48:16,15.08846981,0.0001844999999999,53.2171,298.9971,59.2885,300.8289,0.00010853,1.44e-05,0.0,0 STARLINK-3571,1 51857U 22022F   22264.45018625  .00001440  00000-0  10853-3 0  9990,2 51857  53.2171 298.9971 0001845  59.2885 300.8289 15.08846981 32013,6917.859,95.437,541.0,538.448,0.0
51857.0,STARLINK-3571,PAYLOAD,2022-09-22 09:03:39,15.0884844,0.0001865999999999,53.2169,294.8341,60.2957,299.8221,9.7752e-05,1.268e-05,0.0,0 STARLINK-3571,1 51857U 22022F   22265.37754321  .00001268  00000-0  97752-4 0  9994,2 51857  53.2169 294.8341 0001866  60.2957 299.8221 15.08848440 32151,6917.855,95.437,541.01,538.429,0.0
51857.0,STARLINK-3571,PAYLOAD,2022-09-23 02:32:54,15.08841194,0.0001721999999999,53.2165,291.5633,56.1946,303.921,3.1419e-05,2.12e-06,0.0,0 STARLINK-3571,1 51857U 22022F   22266.10618559  .00000212  00000-0  31419-4 0  9994,2 51857  53.2165 291.5633 0001722  56.1946 303.9210 15.08841194 32264,6917.877,95.437,540.933,538.55,0.0
51857.0,STARLINK-3571,PAYLOAD,2022-09-23 08:54:27,15.08831409,0.0001683,53.2172,290.3739,55.2831,304.8319,-4.1374e-06,-3.54e-06,0.0,0 STARLINK-3571,1 51857U 22022F   22266.37115572 -.00000354  00000-0 -41374-5 0  9991,2 51857  53.2172 290.3739 0001683  55.2831 304.8319 15.08831409 32308,6917.906999999997,95.438,540.936,538.607,0.0
51857.0,STARLINK-3571,PAYLOAD,2022-09-23 18:26:46,15.08836025,0.0001625,53.2176,288.5892,53.7997,306.3145,-8.259e-06,-4.19e-06,0.0,0 STARLINK-3571,1 51857U 22022F   22266.76859343 -.00000419  00000-0 -82590-5 0  9992,2 51857  53.2176 288.5892 0001625  53.7997 306.3145 15.08836025 32362,6917.893,95.438,540.882,538.633,0.0
51857.0,STARLINK-3571,PAYLOAD,2022-09-24 08:45:14,15.08841009,0.000169,53.2175,285.9122,48.9883,311.1255,8.341200000000001e-05,1.04e-05,0.0,0 STARLINK-3571,1 51857U 22022F   22267.36474975  .00001040  00000-0  83412-4 0  9995,2 51857  53.2175 285.9122 0001690  48.9883 311.1255 15.08841009 32454,6917.877,95.437,540.911,538.573,0.0
51857.0,STARLINK-3571,PAYLOAD,2022-09-25 08:36:01,15.08835346,0.0001724,53.2175,281.452,50.0452,310.0692,0.00014121,1.96e-05,0.0,0 STARLINK-3571,1 51857U 22022F   22268.35835347  .00001960  00000-0  14121-3 0  9990,2 51857  53.2175 281.4520 0001724  50.0452 310.0692 15.08835346 32608,6917.895,95.438,540.952,538.567,0.0
51857.0,STARLINK-3571,PAYLOAD,2022-09-25 18:08:20,15.08838877,0.0001672,53.2176,279.668,51.8254,308.2889,0.00013643,1.884e-05,0.0,0 STARLINK-3571,1 51857U 22022F   22268.75579258  .00001884  00000-0  13643-3 0  9993,2 51857  53.2176 279.6680 0001672  51.8254 308.2889 15.08838877 32661,6917.884,95.438,540.905,538.592,0.0
51857.0,STARLINK-3571,PAYLOAD,2022-09-26 08:26:48,15.08841448,0.0001495,53.2169,276.9924,57.767,302.3467,8.8862e-05,1.127e-05,0.0,0 STARLINK-3571,1 51857U 22022F   22269.35195128  .00001127  00000-0  88862-4 0  9996,2 51857  53.2169 276.9924 0001495  57.7670 302.3467 15.08841448 32759,6917.876,95.437,540.775,538.707,0.0
51857.0,STARLINK-3571,PAYLOAD,2022-09-26 17:59:07,15.08833922,0.00015,53.217,275.2086,57.8543,302.2594,-6.0988e-05,-1.258e-05,0.0,0 STARLINK-3571,1 51857U 22022F   22269.74939504 -.00001258  00000-0 -60988-4 0  9999,2 51857  53.2170 275.2086 0001500  57.8543 302.2594 15.08833922 32814,6917.899,95.438,540.802,538.726,0.0
51857.0,STARLINK-3571,PAYLOAD,2022-09-27 06:42:12,15.0883741,0.0001691,53.218,272.8288,50.5031,309.6111,0.00010027,1.308e-05,0.0,0 STARLINK-3571,1 51857U 22022F   22270.27931489  .00001308  00000-0  10027-3 0  9995,2 51857  53.2180 272.8288 0001691  50.5031 309.6111 15.08837410 32895,6917.888000000001,95.438,540.923,538.5830000000002,0.0
51857.0,STARLINK-3571,PAYLOAD,2022-09-28 03:22:12,15.08851476,0.0001757,53.2179,268.9639,48.8264,311.2879,0.00011072,1.475e-05,0.0,0 STARLINK-3571,1 51857U 22022F   22271.14042519  .00001475  00000-0  11072-3 0  9995,2 51857  53.2179 268.9639 0001757  48.8264 311.2879 15.08851476 33024,6917.845,95.437,540.9259999999998,538.495,0.0
51857.0,STARLINK-3571,PAYLOAD,2022-09-28 09:43:46,15.08840674,0.0001942,53.2166,267.775,50.0897,310.0266,0.0001809,2.592e-05,0.0,0 STARLINK-3571,1 51857U 22022F   22271.40539383  .00002592  00000-0  18090-3 0  9992,2 51857  53.2166 267.7750 0001942  50.0897 310.0266 15.08840674 33063,6917.878000000002,95.438,541.087,538.4,0.0
51857.0,STARLINK-3571,PAYLOAD,2022-09-29 03:13:00,15.08838276,0.0001725,53.2165,264.5004,65.1809,294.9362,8.6659e-05,1.091e-05,0.0,0 STARLINK-3571,1 51857U 22022F   22272.13403853  .00001091  00000-0  86659-4 0  9995,2 51857  53.2165 264.5004 0001725  65.1809 294.9362 15.08838276 33172,6917.886,95.438,540.944,538.557,0.0
51857.0,STARLINK-3571,PAYLOAD,2022-09-29 06:23:47,15.08840263,0.0001798,53.2162,263.9075,52.9946,307.1211,1.1804e-05,-1e-06,0.0,0 STARLINK-3571,1 51857U 22022F   22272.26651650 -.00000100  00000-0  11804-4 0  9990,2 51857  53.2162 263.9075 0001798  52.9946 307.1211 15.08840263 33197,6917.88,95.438,540.988,538.501,0.0
51857.0,STARLINK-3571,PAYLOAD,2022-09-29 15:56:06,15.08828358,0.0001846,53.2158,262.1233,51.8024,308.3134,-0.00012516,-2.279e-05,0.0,0 STARLINK-3571,1 51857U 22022F   22272.66396451 -.00002279  00000-0 -12516-3 0  9999,2 51857  53.2158 262.1233 0001846  51.8024 308.3134 15.08828358 33253,6917.916,95.438,541.058,538.504,0.0
51857.0,STARLINK-3571,PAYLOAD,2022-09-30 09:25:21,15.08835969,0.000188,53.2174,258.8523,58.9229,301.1947,0.00010446,1.375e-05,0.0,0 STARLINK-3571,1 51857U 22022F   22273.39260557  .00001375  00000-0  10446-3 0  9991,2 51857  53.2174 258.8523 0001880  58.9229 301.1947 15.08835969 33369,6917.893,95.438,541.058,538.457,0.0
51857.0,STARLINK-3571,PAYLOAD,2022-09-30 15:46:53,15.08844622,0.0001984,53.2175,257.6632,55.3493,304.7686,0.00017753,2.539e-05,0.0,0 STARLINK-3571,1 51857U 22022F   22273.65756055  .00002539  00000-0  17753-3 0  9994,2 51857  53.2175 257.6632 0001984  55.3493 304.7686 15.08844622 33407,6917.866,95.437,541.104,538.359,0.0
51857.0,STARLINK-3571,PAYLOAD,2022-10-01 09:16:07,15.08857067,0.000179,53.2169,254.3935,60.2082,299.9088,0.00045904,7.029e-05,0.0,0 STARLINK-3571,1 51857U 22022F   22274.38619827  .00007029  00000-0  45904-3 0  9998,2 51857  53.2169 254.3935 0001790  60.2082 299.9088 15.08857067 33514,6917.828,95.436,540.932,538.455,0.0
51857.0,STARLINK-3571,PAYLOAD,2022-10-02 04:20:45,15.08844107,0.0001868,53.2168,250.8249,55.6505,304.4664,8.0495e-05,9.93e-06,0.0,0 STARLINK-3571,1 51857U 22022F   22275.18107913  .00000993  00000-0  80495-4 0  9993,2 51857  53.2168 250.8249 0001868  55.6505 304.4664 15.08844107 33632,6917.868,95.437,541.025,538.441,0.0
51857.0,STARLINK-3571,PAYLOAD,2022-10-02 05:56:08,15.08839233,0.0001885999999999,53.2169,250.5253,61.7209,298.3973,-3.5964e-06,-3.45e-06,0.0,0 STARLINK-3571,1 51857U 22022F   22275.24732098 -.00000345  00000-0 -35964-5 0  9993,2 51857  53.2169 250.5253 0001886  61.7209 298.3973 15.08839233 33643,6917.8830000000025,95.438,541.052,538.443,0.0
51857.0,STARLINK-3571,PAYLOAD,2022-10-02 15:28:27,15.08838301,0.0001841,53.2165,248.7422,60.7831,299.3345,-2.8087e-05,-7.35e-06,0.0,0 STARLINK-3571,1 51857U 22022F   22275.64476299 -.00000735  00000-0 -28087-4 0  9995,2 51857  53.2165 248.7422 0001841  60.7831 299.3345 15.08838301 33703,6917.886,95.438,541.024,538.477,0.0
51857.0,STARLINK-3571,PAYLOAD,2022-10-03 04:11:31,15.08854173,0.0001821,53.2165,246.3635,62.7076,297.4102,0.00026729,3.97e-05,0.0,0 STARLINK-3571,1 51857U 22022F   22276.17467507  .00003970  00000-0  26729-3 0  9998,2 51857  53.2165 246.3635 0001821  62.7076 297.4102 15.08854173 33787,6917.837,95.437,540.962,538.442,0.0
51857.0,STARLINK-3571,PAYLOAD,2022-10-03 07:22:18,15.08860544,0.0001818,53.2164,245.7682,63.2396,296.8782,0.0006029,9.326e-05,0.0,0 STARLINK-3571,1 51857U 22022F   22276.30715450  .00009326  00000-0  60290-3 0  9998,2 51857  53.2164 245.7682 0001818  63.2396 296.8782 15.08860544 33807,6917.818,95.436,540.94,538.425,0.0
51857.0,STARLINK-3571,PAYLOAD,2022-10-03 15:19:13,15.08861414,0.0001848,53.2161,244.2824,59.9498,300.1677,0.00080107,0.00012491,0.0,0 STARLINK-3571,1 51857U 22022F   22276.63835338  .00012491  00000-0  80107-3 0  9998,2 51857  53.2161 244.2824 0001848  59.9498 300.1677 15.08861414 33858,6917.815,95.436,540.9580000000002,538.4019999999998,0.0
51857.0,STARLINK-3571,PAYLOAD,2022-10-04 04:02:18,15.08867968,0.0001773,53.2155,241.9021,66.4749,293.6429,0.00061072,9.452e-05,0.0,0 STARLINK-3571,1 51857U 22022F   22277.16826506  .00009452  00000-0  61072-3 0  9997,2 51857  53.2155 241.9021 0001773  66.4749 293.6429 15.08867968 33933,6917.795,95.436,540.886,538.433,0.0
51857.0,STARLINK-3571,PAYLOAD,2022-10-04 16:45:23,15.08858476,0.0001776999999999,53.2157,239.5249,57.6678,302.4486,0.00030195,4.523e-05,0.0,0 STARLINK-3571,1 51857U 22022F   22277.69818432  .00004523  00000-0  30195-3 0  9990,2 51857  53.2157 239.5249 0001777  57.6678 302.4486 15.08858476 34013,6917.824000000001,95.436,540.918,538.46,0.0
